[{"OBJECT_NAME":"STARLINK-30843","OBJECT_ID":"2023-171M","EPOCH":"2024-01-09T02:12:45.911520","MEAN_MOTION":15.15915929,"ECCENTRICITY":0.0001843,"INCLINATION":42.9988,"RA_OF_ASC_NODE":264.8783,"ARG_OF_PERICENTER":271.0885,"MEAN_ANOMALY":88.9751,"EPHEMERIS_TYPE":0,"CLASSIFICATION_TYPE":"U","NORAD_CAT_ID":58241,"ELEMENT_SET_NO":999,"REV_AT_EPOCH":1078,"BSTAR":0.00069189,"MEAN_MOTION_DOT":0.00013293,"MEAN_MOTION_DDOT":0},{"OBJECT_NAME":"STARLINK-30877","OBJECT_ID":"2023-171N","EPOCH":"2024-01-08T21:44:31.546752","MEAN_MOTION":15.15982873,"ECCENTRICITY":0.000144,"INCLINATION":42.999,"RA_OF_ASC_NODE":266.0615,"ARG_OF_PERICENTER":241.5665,"MEAN_ANOMALY":118.5037,"EPHEMERIS_TYPE":0,"CLASSIFICATION_TYPE":"U","NORAD_CAT_ID":58242,"ELEMENT_SET_NO":999,"REV_AT_EPOCH":1073,"BSTAR":0.0014594,"MEAN_MOTION_DOT":0.00028411,"MEAN_MOTION_DDOT":0},{"OBJECT_NAME":"STARLINK-30854","OBJECT_ID":"2023-171Q","EPOCH":"2024-01-09T01:34:08.331744","MEAN_MOTION":15.15986613,"ECCENTRICITY":0.0001334,"INCLINATION":42.9996,"RA_OF_ASC_NODE":265.5409,"ARG_OF_PERICENTER":263.6095,"MEAN_ANOMALY":96.4601,"EPHEMERIS_TYPE":0,"CLASSIFICATION_TYPE":"U","NORAD_CAT_ID":58244,"ELEMENT_SET_NO":999,"REV_AT_EPOCH":1078,"BSTAR":0.0016628,"MEAN_MOTION_DOT":0.00032425,"MEAN_MOTION_DDOT":0},{"OBJECT_NAME":"STARLINK-30849","OBJECT_ID":"2023-171R","EPOCH":"2024-01-09T03:02:27.707712","MEAN_MOTION":15.15978815,"ECCENTRICITY":0.0001422,"INCLINATION":42.9994,"RA_OF_ASC_NODE":265.1407,"ARG_OF_PERICENTER":268.0209,"MEAN_ANOMALY":92.0476,"EPHEMERIS_TYPE":0,"CLASSIFICATION_TYPE":"U","NORAD_CAT_ID":58245,"ELEMENT_SET_NO":999,"REV_AT_EPOCH":1077,"BSTAR":0.0017208,"MEAN_MOTION_DOT":0.00033562,"MEAN_MOTION_DDOT":0},{"OBJECT_NAME":"STARLINK-30886","OBJECT_ID":"2023-171S","EPOCH":"2024-01-08T22:11:16.387008","MEAN_MOTION":15.15971107,"ECCENTRICITY":0.0003178,"INCLINATION":42.9996,"RA_OF_ASC_NODE":266.2025,"ARG_OF_PERICENTER":323.7445,"MEAN_ANOMALY":36.3187,"EPHEMERIS_TYPE":0,"CLASSIFICATION_TYPE":"U","NORAD_CAT_ID":58246,"ELEMENT_SET_NO":999,"REV_AT_EPOCH":1073,"BSTAR":0.0011081,"MEAN_MOTION_DOT":0.00021489,"MEAN_MOTION_DDOT":0},{"OBJECT_NAME":"STARLINK-30850","OBJECT_ID":"2023-171T","EPOCH":"2024-01-09T01:24:18.321696","MEAN_MOTION":15.15972973,"ECCENTRICITY":0.0001448,"INCLINATION":42.9994,"RA_OF_ASC_NODE":265.4885,"ARG_OF_PERICENTER":271.0711,"MEAN_ANOMALY":88.997,"EPHEMERIS_TYPE":0,"CLASSIFICATION_TYPE":"U","NORAD_CAT_ID":58247,"ELEMENT_SET_NO":999,"REV_AT_EPOCH":1060,"BSTAR":0.0016764,"MEAN_MOTION_DOT":0.0003268,"MEAN_MOTION_DDOT":0},{"OBJECT_NAME":"STARLINK-30823","OBJECT_ID":"2023-171U","EPOCH":"2024-01-08T22:07:59.509056","MEAN_MOTION":15.15970127,"ECCENTRICITY":0.0001459,"INCLINATION":42.9995,"RA_OF_ASC_NODE":266.1847,"ARG_OF_PERICENTER":258.1132,"MEAN_ANOMALY":101.9552,"EPHEMERIS_TYPE":0,"CLASSIFICATION_TYPE":"U","NORAD_CAT_ID":58248,"ELEMENT_SET_NO":999,"REV_AT_EPOCH":1073,"BSTAR":0.0006165,"MEAN_MOTION_DOT":0.00011835,"MEAN_MOTION_DDOT":0},{"OBJECT_NAME":"STARLINK-30873","OBJECT_ID":"2023-171V","EPOCH":"2024-01-09T01:14:28.468896","MEAN_MOTION":15.15957776,"ECCENTRICITY":0.000151,"INCLINATION":42.9995,"RA_OF_ASC_NODE":265.4369,"ARG_OF_PERICENTER":270.7269,"MEAN_ANOMALY":89.3405,"EPHEMERIS_TYPE":0,"CLASSIFICATION_TYPE":"U","NORAD_CAT_ID":58249,"ELEMENT_SET_NO":999,"REV_AT_EPOCH":1077,"BSTAR":0.0016074,"MEAN_MOTION_DOT":0.00031306,"MEAN_MOTION_DDOT":0},{"OBJECT_NAME":"STARLINK-30808","OBJECT_ID":"2023-171W","EPOCH":"2024-01-09T02:46:04.103328","MEAN_MOTION":15.15983601,"ECCENTRICITY":0.0001387,"INCLINATION":42.9998,"RA_OF_ASC_NODE":265.045,"ARG_OF_PERICENTER":267.6629,"MEAN_ANOMALY":92.406,"EPHEMERIS_TYPE":0,"CLASSIFICATION_TYPE":"U","NORAD_CAT_ID":58250,"ELEMENT_SET_NO":999,"REV_AT_EPOCH":1077,"BSTAR":0.0011786,"MEAN_MOTION_DOT":0.00022882,"MEAN_MOTION_DDOT":0},{"OBJECT_NAME":"STARLINK-30881","OBJECT_ID":"2023-171X","EPOCH":"2024-01-09T02:41:50.858880","MEAN_MOTION":15.15997258,"ECCENTRICITY":0.0001458,"INCLINATION":42.9987,"RA_OF_ASC_NODE":263.2615,"ARG_OF_PERICENTER":267.7661,"MEAN_ANOMALY":92.302,"EPHEMERIS_TYPE":0,"CLASSIFICATION_TYPE":"U","NORAD_CAT_ID":58251,"ELEMENT_SET_NO":999,"REV_AT_EPOCH":1073,"BSTAR":0.0017978,"MEAN_MOTION_DOT":0.000351,"MEAN_MOTION_DDOT":0},{"OBJECT_NAME":"STARLINK-30883","OBJECT_ID":"2023-171Y","EPOCH":"2024-01-08T21:37:57.927360","MEAN_MOTION":15.15974832,"ECCENTRICITY":0.0001432,"INCLINATION":42.9991,"RA_OF_ASC_NODE":266.0276,"ARG_OF_PERICENTER":267.9963,"MEAN_ANOMALY":92.0721,"EPHEMERIS_TYPE":0,"CLASSIFICATION_TYPE":"U","NORAD_CAT_ID":58252,"ELEMENT_SET_NO":999,"REV_AT_EPOCH":1073,"BSTAR":0.0015166,"MEAN_MOTION_DOT":0.00029531,"MEAN_MOTION_DDOT":0},{"OBJECT_NAME":"CHINASAT 6E (ZX 6E)","OBJECT_ID":"2023-172A","EPOCH":"2024-01-08T21:09:19.971360","MEAN_MOTION":1.00267976,"ECCENTRICITY":0.0001396,"INCLINATION":0.0393,"RA_OF_ASC_NODE":164.2986,"ARG_OF_PERICENTER":275.0391,"MEAN_ANOMALY":101.4088,"EPHEMERIS_TYPE":0,"CLASSIFICATION_TYPE":"U","NORAD_CAT_ID":58253,"ELEMENT_SET_NO":999,"REV_AT_EPOCH":73,"BSTAR":0,"MEAN_MOTION_DOT":-3.37e-6,"MEAN_MOTION_DDOT":0},{"OBJECT_NAME":"CONNECTA T3.1","OBJECT_ID":"2023-174A","EPOCH":"2024-01-08T17:15:55.734912","MEAN_MOTION":15.14653507,"ECCENTRICITY":0.001233,"INCLINATION":97.4739,"RA_OF_ASC_NODE":85.6189,"ARG_OF_PERICENTER":84.674,"MEAN_ANOMALY":275.5898,"EPHEMERIS_TYPE":0,"CLASSIFICATION_TYPE":"U","NORAD_CAT_ID":58256,"ELEMENT_SET_NO":999,"REV_AT_EPOCH":937,"BSTAR":0.00040466,"MEAN_MOTION_DOT":7.432e-5,"MEAN_MOTION_DDOT":0},{"OBJECT_NAME":"LEMUR-2-BASS","OBJECT_ID":"2023-174D","EPOCH":"2024-01-08T17:34:09.316992","MEAN_MOTION":15.14247552,"ECCENTRICITY":0.0013999,"INCLINATION":97.4732,"RA_OF_ASC_NODE":85.5976,"ARG_OF_PERICENTER":84.9964,"MEAN_ANOMALY":275.2865,"EPHEMERIS_TYPE":0,"CLASSIFICATION_TYPE":"U","NORAD_CAT_ID":58259,"ELEMENT_SET_NO":999,"REV_AT_EPOCH":937,"BSTAR":0.0004039,"MEAN_MOTION_DOT":7.337e-5,"MEAN_MOTION_DDOT":0}]
