58241,STARLINK-30843,2023,94.99,-1.0,+,43.0,Active,0,LEO,USA,USA,Unknown,Unknown,Falcon,1 58241U 23171M   24009.09219805  .00013293  00000+0  69189-3 0  9996,2 58241  42.9988 264.8783 0001843 271.0885  88.9751 15.15915929 10788,15.15915929,0.0001843,LEO
58242,STARLINK-30877,2023,94.99,-1.0,+,43.0,Active,0,LEO,USA,USA,Unknown,Unknown,Falcon,1 58242U 23171N   24008.90592068  .00028411  00000+0  14594-2 0  9998,2 58242  42.9990 266.0615 0001440 241.5665 118.5037 15.15982873 10735,15.15982873,0.000144,LEO
58244,STARLINK-30854,2023,94.99,-1.0,+,43.0,Active,0,LEO,USA,USA,Unknown,Unknown,Falcon,1 58244U 23171Q   24009.06537421  .00032425  00000+0  16628-2 0  9990,2 58244  42.9996 265.5409 0001334 263.6095  96.4601 15.15986613 10784,15.15986613,0.0001334,LEO
58245,STARLINK-30849,2023,94.99,-1.0,+,43.0,Active,0,LEO,USA,USA,Unknown,Unknown,Falcon,1 58245U 23171R   24009.12670958  .00033562  00000+0  17208-2 0  9999,2 58245  42.9994 265.1407 0001422 268.0209  92.0476 15.15978815 10777,15.15978815,0.0001422,LEO
58246,STARLINK-30886,2023,94.99,-1.0,+,43.0,Active,0,LEO,USA,USA,Unknown,Unknown,Falcon,1 58246U 23171S   24008.92449522  .00021489  00000+0  11081-2 0  9996,2 58246  42.9996 266.2025 0003178 323.7445  36.3187 15.15971107 10732,15.15971107,0.0003178,LEO
58247,STARLINK-30850,2023,94.99,-1.0,+,43.0,Active,0,LEO,USA,USA,Unknown,Unknown,Falcon,1 58247U 23171T   24009.05854539  .00032680  00000+0  16764-2 0  9998,2 58247  42.9994 265.4885 0001448 271.0711  88.9970 15.15972973 10606,15.15972973,0.0001448,LEO
58248,STARLINK-30823,2023,94.99,-1.0,+,43.0,Active,0,LEO,USA,USA,Unknown,Unknown,Falcon,1 58248U 23171U   24008.92221654  .00011835  00000+0  61650-3 0  9994,2 58248  42.9995 266.1847 0001459 258.1132 101.9552 15.15970127 10734,15.15970127,0.0001459,LEO
58249,STARLINK-30873,2023,94.99,-1.0,+,43.0,Active,0,LEO,USA,USA,Unknown,Unknown,Falcon,1 58249U 23171V   24009.05171839  .00031306  00000+0  16074-2 0  9993,2 58249  42.9995 265.4369 0001510 270.7269  89.3405 15.15957776 10770,15.15957776,0.000151,LEO
58250,STARLINK-30808,2023,94.99,-1.0,+,43.0,Active,0,LEO,USA,USA,Unknown,Unknown,Falcon,1 58250U 23171W   24009.11532527  .00022882  00000+0  11786-2 0  9991,2 58250  42.9998 265.0450 0001387 267.6629  92.4060 15.15983601 10777,15.15983601,0.0001387,LEO
58251,STARLINK-30881,2023,94.99,-1.0,+,43.0,Active,0,LEO,USA,USA,Unknown,Unknown,Falcon,1 58251U 23171X   24009.11239420  .00035100  00000+0  17978-2 0  9994,2 58251  42.9987 263.2615 0001458 267.7661  92.3020 15.15997258 10739,15.15997258,0.0001458,LEO
58252,STARLINK-30883,2023,94.99,-1.0,+,43.0,Active,0,LEO,USA,USA,Unknown,Unknown,Falcon,1 58252U 23171Y   24008.90136490  .00029531  00000+0  15166-2 0  9992,2 58252  42.9991 266.0276 0001432 267.9963  92.0721 15.15974832 10736,15.15974832,0.0001432,LEO
58253,CHINASAT 6E (ZX 6E),2023,1436.14,-1.0,+,0.04,Active,0,GSO,PRC,China,Unknown,Unknown,Unknown,1 58253U 23172A   24008.88148115 -.00000337  00000+0  00000+0 0  9990,2 58253   0.0393 164.2986 0001396 275.0391 101.4088  1.00267976   732,1.00267976,0.0001396,GEO
58256,CONNECTA T3.1,2023,95.07,-1.0,+,97.47,Active,0,LEO,USA,Turkey,Unknown,Unknown,Unknown,1 58256U 23174A   24008.71939508  .00007432  00000+0  40466-3 0  9997,2 58256  97.4739  85.6189 0012330  84.6740 275.5898 15.14653507  9372,15.14653507,0.001233,LEO
58259,LEMUR-2-BASS,2023,95.1,-1.0,+,97.47,Active,0,LEO,USA,USA,Unknown,Unknown,Unknown,1 58259U 23174D   24008.73205228  .00007337  00000+0  40390-3 0  9997,2 58259  97.4732  85.5976 0013999  84.9964 275.2865 15.14247552  9374,15.14247552,0.0013999,LEO
